start=new Date('2021-09-01T00:00:00.000Z').valueOf();
sats=[{"PERIOD":"95.592","RCS_SIZE":"LARGE","NORAD_CAT_ID":"44737","SITE":"AFETR","REV_AT_EPOCH":"9964","BSTAR":"0.00008030600000","MEAN_MOTION":"15.06394926","SEMIMAJOR_AXIS":"6925.364","MEAN_MOTION_DDOT":"0.0000000000000","TIME_SYSTEM":"UTC","CLASSIFICATION_TYPE":"U","OBJECT_ID":"2019-074AA","CENTER_NAME":"EARTH","DECAY_DATE":null,"OBJECT_TYPE":"PAYLOAD","OBJECT_NAME":"STARLINK-1032","TLE_LINE2":"2 44737  53.0550  57.7767 0002083  92.1397 267.9830 15.06394926 99646","PERIAPSIS":"545.787","EPOCH":"2021-08-31T19:07:14.517120","TLE_LINE1":"1 44737U 19074AA  21243.79669580  .00000914  00000-0  80306-4 0  9993","ELEMENT_SET_NO":"999","LAUNCH_DATE":"2019-11-11","RA_OF_ASC_NODE":"57.7767","EPHEMERIS_TYPE":"0","FILE":"3106454","COUNTRY_CODE":"US","MEAN_MOTION_DOT":"0.00000914","MEAN_ANOMALY":"267.9830","INCLINATION":"53.0550","REF_FRAME":"TEME","MEAN_ELEMENT_THEORY":"SGP4","ARG_OF_PERICENTER":"92.1397","ECCENTRICITY":"0.00020830","APOAPSIS":"548.672","GP_ID":"183840696"},{"BSTAR":"-0.00005322600000","TIME_SYSTEM":"UTC","MEAN_MOTION_DDOT":"0.0000000000000","SEMIMAJOR_AXIS":"6925.342","MEAN_MOTION":"15.06402021","NORAD_CAT_ID":"44738","RCS_SIZE":"LARGE","PERIOD":"95.592","REV_AT_EPOCH":"9962","SITE":"AFETR","CENTER_NAME":"EARTH","OBJECT_ID":"2019-074AB","CLASSIFICATION_TYPE":"U","TLE_LINE2":"2 44738  53.0536  58.1303 0001916 102.8494 257.2710 15.06402021 99626","LAUNCH_DATE":"2019-11-11","ELEMENT_SET_NO":"999","TLE_LINE1":"1 44738U 19074AB  21243.71560631 -.00001074  00000-0 -53226-4 0  9994","EPOCH":"2021-08-31T17:10:28.385184","PERIAPSIS":"545.880","OBJECT_TYPE":"PAYLOAD","DECAY_DATE":null,"OBJECT_NAME":"STARLINK-1033","MEAN_ELEMENT_THEORY":"SGP4","ARG_OF_PERICENTER":"102.8494","REF_FRAME":"TEME","INCLINATION":"53.0536","GP_ID":"183840946","APOAPSIS":"548.534","ECCENTRICITY":"0.00019160","EPHEMERIS_TYPE":"0","RA_OF_ASC_NODE":"58.1303","MEAN_ANOMALY":"257.2710","MEAN_MOTION_DOT":"-0.00001074","FILE":"3106454","COUNTRY_CODE":"US"},{"RA_OF_ASC_NODE":"55.8910","EPHEMERIS_TYPE":"0","FILE":"3106454","COUNTRY_CODE":"US","MEAN_ANOMALY":"258.9302","MEAN_MOTION_DOT":"0.00004946","REF_FRAME":"TEME","INCLINATION":"52.9995","ARG_OF_PERICENTER":"101.1901","MEAN_ELEMENT_THEORY":"SGP4","APOAPSIS":"545.749","ECCENTRICITY":"0.00019120","GP_ID":"183839195","OBJECT_TYPE":"PAYLOAD","DECAY_DATE":null,"OBJECT_NAME":"STARLINK-1034","TLE_LINE2":"2 44739  52.9995  55.8910 0001912 101.1901 258.9302 15.07310073 99646","EPOCH":"2021-08-31T19:33:10.558656","PERIAPSIS":"543.102","ELEMENT_SET_NO":"999","LAUNCH_DATE":"2019-11-11","TLE_LINE1":"1 44739U 19074AC  21243.81470554  .00004946  00000-0  34236-3 0  9998","CLASSIFICATION_TYPE":"U","CENTER_NAME":"EARTH","OBJECT_ID":"2019-074AC","RCS_SIZE":"LARGE","PERIOD":"95.534","NORAD_CAT_ID":"44739","SITE":"AFETR","REV_AT_EPOCH":"9964","BSTAR":"0.00034236000000","SEMIMAJOR_AXIS":"6922.561","MEAN_MOTION":"15.07310073","TIME_SYSTEM":"UTC","MEAN_MOTION_DDOT":"0.0000000000000"},{"REV_AT_EPOCH":"9964","SITE":"AFETR","NORAD_CAT_ID":"44740","PERIOD":"95.593","RCS_SIZE":"LARGE","TIME_SYSTEM":"UTC","MEAN_MOTION_DDOT":"0.0000000000000","SEMIMAJOR_AXIS":"6925.392","MEAN_MOTION":"15.06385899","BSTAR":"-0.00003855100000","CLASSIFICATION_TYPE":"U","CENTER_NAME":"EARTH","OBJECT_ID":"2019-074AD","OBJECT_NAME":"STARLINK-1035","OBJECT_TYPE":"PAYLOAD","DECAY_DATE":null,"LAUNCH_DATE":"2019-11-11","ELEMENT_SET_NO":"999","TLE_LINE1":"1 44740U 19074AD  21243.79302583 -.00000856  00000-0 -38551-4 0  9996","EPOCH":"2021-08-31T19:01:57.431712","PERIAPSIS":"545.776","TLE_LINE2":"2 44740  53.0551  57.7815 0002138 101.9362 258.1866 15.06385899 99647","MEAN_ANOMALY":"258.1866","MEAN_MOTION_DOT":"-0.00000856","COUNTRY_CODE":"US","FILE":"3106454","EPHEMERIS_TYPE":"0","RA_OF_ASC_NODE":"57.7815","GP_ID":"183839445","APOAPSIS":"548.737","ECCENTRICITY":"0.00021380","ARG_OF_PERICENTER":"101.9362","MEAN_ELEMENT_THEORY":"SGP4","REF_FRAME":"TEME","INCLINATION":"53.0551"},{"MEAN_ANOMALY":"255.0379","MEAN_MOTION_DOT":"-0.00000849","COUNTRY_CODE":"US","FILE":"3106454","EPHEMERIS_TYPE":"0","RA_OF_ASC_NODE":"57.7374","GP_ID":"183840197","ECCENTRICITY":"0.00018410","APOAPSIS":"548.537","ARG_OF_PERICENTER":"105.0814","MEAN_ELEMENT_THEORY":"SGP4","INCLINATION":"53.0570","REF_FRAME":"TEME","OBJECT_NAME":"STARLINK-1036","DECAY_DATE":null,"OBJECT_TYPE":"PAYLOAD","TLE_LINE1":"1 44741U 19074AE  21243.80408948 -.00000849  00000-0 -38119-4 0  9993","ELEMENT_SET_NO":"999","LAUNCH_DATE":"2019-11-11","PERIAPSIS":"545.987","EPOCH":"2021-08-31T19:17:53.331072","TLE_LINE2":"2 44741  53.0570  57.7374 0001841 105.0814 255.0379 15.06384244 99644","CLASSIFICATION_TYPE":"U","OBJECT_ID":"2019-074AE","CENTER_NAME":"EARTH","SITE":"AFETR","REV_AT_EPOCH":"9964","NORAD_CAT_ID":"44741","PERIOD":"95.593","RCS_SIZE":"LARGE","MEAN_MOTION_DDOT":"0.0000000000000","TIME_SYSTEM":"UTC","MEAN_MOTION":"15.06384244","SEMIMAJOR_AXIS":"6925.397","BSTAR":"-0.00003811900000"},{"BSTAR":"0.00028191000000","MEAN_MOTION_DDOT":"0.0000000000000","TIME_SYSTEM":"UTC","MEAN_MOTION":"15.08398023","SEMIMAJOR_AXIS":"6919.232","NORAD_CAT_ID":"44742","RCS_SIZE":"LARGE","PERIOD":"95.466","REV_AT_EPOCH":"9969","SITE":"AFETR","OBJECT_ID":"2019-074AF","CENTER_NAME":"EARTH","CLASSIFICATION_TYPE":"U","TLE_LINE2":"2 44742  52.9983  52.7658 0001113  69.2029 290.9079 15.08398023 99694","TLE_LINE1":"1 44742U 19074AF  21243.83224536  .00004149  00000-0  28191-3 0  9999","LAUNCH_DATE":"2019-11-11","ELEMENT_SET_NO":"999","PERIAPSIS":"540.327","EPOCH":"2021-08-31T19:58:25.999104","DECAY_DATE":null,"OBJECT_TYPE":"PAYLOAD","OBJECT_NAME":"STARLINK-1037","MEAN_ELEMENT_THEORY":"SGP4","ARG_OF_PERICENTER":"69.2029","INCLINATION":"52.9983","REF_FRAME":"TEME","GP_ID":"183840447","ECCENTRICITY":"0.00011130","APOAPSIS":"541.867","EPHEMERIS_TYPE":"0","RA_OF_ASC_NODE":"52.7658","MEAN_MOTION_DOT":"0.00004149","MEAN_ANOMALY":"290.9079","COUNTRY_CODE":"US","FILE":"3106454"},{"BSTAR":"0.00010938000000","MEAN_MOTION":"15.06394212","SEMIMAJOR_AXIS":"6925.366","MEAN_MOTION_DDOT":"0.0000000000000","TIME_SYSTEM":"UTC","RCS_SIZE":"LARGE","PERIOD":"95.593","NORAD_CAT_ID":"44743","REV_AT_EPOCH":"9947","SITE":"AFETR","OBJECT_ID":"2019-074AG","CENTER_NAME":"EARTH","CLASSIFICATION_TYPE":"U","TLE_LINE2":"2 44743  53.0553  77.2235 0001792  87.3156 272.8038 15.06394212 99472","PERIAPSIS":"545.990","EPOCH":"2021-08-31T22:05:04.552512","TLE_LINE1":"1 44743U 19074AG  21243.92019158  .00001348  00000-0  10938-3 0  9990","ELEMENT_SET_NO":"999","LAUNCH_DATE":"2019-11-11","DECAY_DATE":null,"OBJECT_TYPE":"PAYLOAD","OBJECT_NAME":"STARLINK-1038","INCLINATION":"53.0553","REF_FRAME":"TEME","ARG_OF_PERICENTER":"87.3156","MEAN_ELEMENT_THEORY":"SGP4","ECCENTRICITY":"0.00017920","APOAPSIS":"548.472","GP_ID":"183839695","RA_OF_ASC_NODE":"77.2235","EPHEMERIS_TYPE":"0","COUNTRY_CODE":"US","FILE":"3106454","MEAN_MOTION_DOT":"0.00001348","MEAN_ANOMALY":"272.8038"},{"CLASSIFICATION_TYPE":"U","CENTER_NAME":"EARTH","OBJECT_ID":"2019-074AH","NORAD_CAT_ID":"44744","PERIOD":"95.593","RCS_SIZE":"LARGE","REV_AT_EPOCH":"9938","SITE":"AFETR","BSTAR":"0.00007478800000","TIME_SYSTEM":"UTC","MEAN_MOTION_DDOT":"0.0000000000000","SEMIMAJOR_AXIS":"6925.372","MEAN_MOTION":"15.06392384","EPHEMERIS_TYPE":"0","RA_OF_ASC_NODE":"77.1656","MEAN_MOTION_DOT":"0.00000832","MEAN_ANOMALY":"277.9566","FILE":"3106454","COUNTRY_CODE":"US","MEAN_ELEMENT_THEORY":"SGP4","ARG_OF_PERICENTER":"82.1643","REF_FRAME":"TEME","INCLINATION":"53.0562","GP_ID":"183839945","APOAPSIS":"548.581","ECCENTRICITY":"0.00019410","OBJECT_TYPE":"PAYLOAD","DECAY_DATE":null,"OBJECT_NAME":"STARLINK-1039","TLE_LINE2":"2 44744  53.0562  77.1656 0001941  82.1643 277.9566 15.06392384 99389","ELEMENT_SET_NO":"999","LAUNCH_DATE":"2019-11-11","TLE_LINE1":"1 44744U 19074AH  21243.93123517  .00000832  00000-0  74788-4 0  9998","EPOCH":"2021-08-31T22:20:58.718688","PERIAPSIS":"545.893"},{"CLASSIFICATION_TYPE":"U","CENTER_NAME":"EARTH","OBJECT_ID":"2019-074AK","REV_AT_EPOCH":"9938","SITE":"AFETR","RCS_SIZE":"LARGE","PERIOD":"95.592","NORAD_CAT_ID":"44746","SEMIMAJOR_AXIS":"6925.362","MEAN_MOTION":"15.06395610","TIME_SYSTEM":"UTC","MEAN_MOTION_DDOT":"0.0000000000000","BSTAR":"-0.00001097400000","COUNTRY_CODE":"US","FILE":"3106454","MEAN_MOTION_DOT":"-0.00000445","MEAN_ANOMALY":"269.1526","RA_OF_ASC_NODE":"77.2205","EPHEMERIS_TYPE":"0","APOAPSIS":"548.649","ECCENTRICITY":"0.00020530","GP_ID":"183840697","REF_FRAME":"TEME","INCLINATION":"53.0541","MEAN_ELEMENT_THEORY":"SGP4","ARG_OF_PERICENTER":"90.9698","OBJECT_NAME":"STARLINK-1041","OBJECT_TYPE":"PAYLOAD","DECAY_DATE":null,"EPOCH":"2021-08-31T21:59:45.089376","PERIAPSIS":"545.805","LAUNCH_DATE":"2019-11-11","ELEMENT_SET_NO":"999","TLE_LINE1":"1 44746U 19074AK  21243.91649409 -.00000445  00000-0 -10974-4 0  9990","TLE_LINE2":"2 44746  53.0541  77.2205 0002053  90.9698 269.1526 15.06395610 99385"},{"RCS_SIZE":"LARGE","PERIOD":"95.593","NORAD_CAT_ID":"44747","REV_AT_EPOCH":"9939","SITE":"AFETR","BSTAR":"-0.00003631800000","SEMIMAJOR_AXIS":"6925.369","MEAN_MOTION":"15.06393417","TIME_SYSTEM":"UTC","MEAN_MOTION_DDOT":"0.0000000000000","CLASSIFICATION_TYPE":"U","CENTER_NAME":"EARTH","OBJECT_ID":"2019-074AL","OBJECT_TYPE":"PAYLOAD","DECAY_DATE":null,"OBJECT_NAME":"STARLINK-1042","TLE_LINE2":"2 44747  53.0551  77.1071 0002031  89.0412 271.0810 15.06393417 99398","EPOCH":"2021-08-31T22:42:13.419360","PERIAPSIS":"545.827","ELEMENT_SET_NO":"999","LAUNCH_DATE":"2019-11-11","TLE_LINE1":"1 44747U 19074AL  21243.94598865 -.00000823  00000-0 -36318-4 0  9993","RA_OF_ASC_NODE":"77.1071","EPHEMERIS_TYPE":"0","COUNTRY_CODE":"US","FILE":"3106454","MEAN_MOTION_DOT":"-0.00000823","MEAN_ANOMALY":"271.0810","REF_FRAME":"TEME","INCLINATION":"53.0551","MEAN_ELEMENT_THEORY":"SGP4","ARG_OF_PERICENTER":"89.0412","APOAPSIS":"548.640","ECCENTRICITY":"0.00020310","GP_ID":"183840947"}];
